{
  "type": "FeatureCollection",
  "features": [
    {
      "type": "Feature",
      "properties": {
        "norad_id": 31449,
        "name": "FENGYUN 1C DEB",
        "group": "fengyun-1c-debris",
        "lat": 56.48456265096497,
        "lon": 33.67392233022014,
        "alt_km": 865.8188462047228,
        "timestamp": "2025-12-14T07:33:19.760548+00:00",
        "meta_object_name": "FENGYUN 1C DEB",
        "meta_object_id": "1999-025BUM",
        "meta_epoch": "2025-12-10T21:12:43.510752",
        "meta_mean_motion": 14.33705066,
        "meta_eccentricity": 0.0144053,
        "meta_inclination": 98.5553,
        "meta_ra_of_asc_node": 43.4188,
        "meta_arg_of_pericenter": 274.279,
        "meta_mean_anomaly": 84.1945,
        "meta_ephemeris_type": 0,
        "meta_classification_type": "U",
        "meta_norad_cat_id": 31449,
        "meta_element_set_no": 999,
        "meta_rev_at_epoch": 97610,
        "meta_bstar": 0.00033048,
        "meta_mean_motion_dot": 9.81e-06,
        "meta_mean_motion_ddot": 0,
        "tle_line1": "1 31449U 99025BUM 25344.88383693  .00000981  00000+0  33048-3 0  9990",
        "tle_line2": "2 31449  98.5553  43.4188 0144053 274.2790  84.1945 14.33705066976103"
      },
      "geometry": {
        "type": "Point",
        "coordinates": [
          33.67392233022014,
          56.48456265096497
        ]
      }
    },
    {
      "type": "Feature",
      "properties": {
        "norad_id": 31451,
        "name": "FENGYUN 1C DEB",
        "group": "fengyun-1c-debris",
        "lat": 71.86041676236741,
        "lon": 2.2656048188265583,
        "alt_km": 855.3762010214868,
        "timestamp": "2025-12-14T07:33:19.760560+00:00",
        "meta_object_name": "FENGYUN 1C DEB",
        "meta_object_id": "1999-025BUP",
        "meta_epoch": "2025-12-13T09:13:11.030880",
        "meta_mean_motion": 14.13625186,
        "meta_eccentricity": 0.00312295,
        "meta_inclination": 98.7638,
        "meta_ra_of_asc_node": 29.4435,
        "meta_arg_of_pericenter": 209.6999,
        "meta_mean_anomaly": 171.1363,
        "meta_ephemeris_type": 0,
        "meta_classification_type": "U",
        "meta_norad_cat_id": 31451,
        "meta_element_set_no": 999,
        "meta_rev_at_epoch": 96019,
        "meta_bstar": 0.00054465734,
        "meta_mean_motion_dot": 9.89e-06,
        "meta_mean_motion_ddot": 0,
        "tle_line1": "1 31451U 99025BUP 25347.38415545  .00000989  00000+0  54466-3 0  9998",
        "tle_line2": "2 31451  98.7638  29.4435 0031229 209.6999 171.1363 14.13625186960199"
      },
      "geometry": {
        "type": "Point",
        "coordinates": [
          2.2656048188265583,
          71.86041676236741
        ]
      }
    },
    {
      "type": "Feature",
      "properties": {
        "norad_id": 31452,
        "name": "FENGYUN 1C DEB",
        "group": "fengyun-1c-debris",
        "lat": -19.750103776141447,
        "lon": -21.653636927615405,
        "alt_km": 870.335703901399,
        "timestamp": "2025-12-14T07:33:19.760571+00:00",
        "meta_object_name": "FENGYUN 1C DEB",
        "meta_object_id": "1999-025BUQ",
        "meta_epoch": "2025-12-11T21:57:24.094080",
        "meta_mean_motion": 14.1516601,
        "meta_eccentricity": 0.0040751,
        "meta_inclination": 98.6581,
        "meta_ra_of_asc_node": 332.8811,
        "meta_arg_of_pericenter": 130.1744,
        "meta_mean_anomaly": 230.301,
        "meta_ephemeris_type": 0,
        "meta_classification_type": "U",
        "meta_norad_cat_id": 31452,
        "meta_element_set_no": 999,
        "meta_rev_at_epoch": 96194,
        "meta_bstar": 0.0005253,
        "meta_mean_motion_dot": 9.86e-06,
        "meta_mean_motion_ddot": 0,
        "tle_line1": "1 31452U 99025BUQ 25345.91486220  .00000986  00000+0  52530-3 0  9991",
        "tle_line2": "2 31452  98.6581 332.8811 0040751 130.1744 230.3010 14.15166010961940"
      },
      "geometry": {
        "type": "Point",
        "coordinates": [
          -21.653636927615405,
          -19.750103776141447
        ]
      }
    },
    {
      "type": "Feature",
      "properties": {
        "norad_id": 31455,
        "name": "FENGYUN 1C DEB",
        "group": "fengyun-1c-debris",
        "lat": -63.21373456433605,
        "lon": -6.136144111192496,
        "alt_km": 915.8607989108295,
        "timestamp": "2025-12-14T07:33:19.760581+00:00",
        "meta_object_name": "FENGYUN 1C DEB",
        "meta_object_id": "1999-025BUT",
        "meta_epoch": "2025-12-13T04:38:12.767712",
        "meta_mean_motion": 14.11430049,
        "meta_eccentricity": 0.02186076,
        "meta_inclination": 98.5742,
        "meta_ra_of_asc_node": 335.4028,
        "meta_arg_of_pericenter": 49.9493,
        "meta_mean_anomaly": 312.0631,
        "meta_ephemeris_type": 0,
        "meta_classification_type": "U",
        "meta_norad_cat_id": 31455,
        "meta_element_set_no": 999,
        "meta_rev_at_epoch": 96110,
        "meta_bstar": 0.00043184839,
        "meta_mean_motion_dot": 9.38e-06,
        "meta_mean_motion_ddot": 0,
        "tle_line1": "1 31455U 99025BUT 25347.19320333  .00000938  00000+0  43185-3 0  9991",
        "tle_line2": "2 31455  98.5742 335.4028 0218607  49.9493 312.0631 14.11430049961102"
      },
      "geometry": {
        "type": "Point",
        "coordinates": [
          -6.136144111192496,
          -63.21373456433605
        ]
      }
    },
    {
      "type": "Feature",
      "properties": {
        "norad_id": 31456,
        "name": "FENGYUN 1C DEB",
        "group": "fengyun-1c-debris",
        "lat": 79.5640236739508,
        "lon": -34.305098068235246,
        "alt_km": 783.1358802478126,
        "timestamp": "2025-12-14T07:33:19.760591+00:00",
        "meta_object_name": "FENGYUN 1C DEB",
        "meta_object_id": "1999-025BUU",
        "meta_epoch": "2025-12-13T12:47:54.236832",
        "meta_mean_motion": 14.42408216,
        "meta_eccentricity": 0.00675973,
        "meta_inclination": 98.5769,
        "meta_ra_of_asc_node": 89.8836,
        "meta_arg_of_pericenter": 311.9856,
        "meta_mean_anomaly": 47.5588,
        "meta_ephemeris_type": 0,
        "meta_classification_type": "U",
        "meta_norad_cat_id": 31456,
        "meta_element_set_no": 999,
        "meta_rev_at_epoch": 97478,
        "meta_bstar": 0.0013308034,
        "meta_mean_motion_dot": 4.48e-05,
        "meta_mean_motion_ddot": 0,
        "tle_line1": "1 31456U 99025BUU 25347.53326663  .00004480  00000+0  13308-2 0  9991",
        "tle_line2": "2 31456  98.5769  89.8836 0067597 311.9856  47.5588 14.42408216974788"
      },
      "geometry": {
        "type": "Point",
        "coordinates": [
          -34.305098068235246,
          79.5640236739508
        ]
      }
    },
    {
      "type": "Feature",
      "properties": {
        "norad_id": 31459,
        "name": "FENGYUN 1C DEB",
        "group": "fengyun-1c-debris",
        "lat": 45.9539078846422,
        "lon": -112.02974030381986,
        "alt_km": 728.9935195062462,
        "timestamp": "2025-12-14T07:33:19.760602+00:00",
        "meta_object_name": "FENGYUN 1C DEB",
        "meta_object_id": "1999-025BUX",
        "meta_epoch": "2025-12-12T23:44:38.705568",
        "meta_mean_motion": 14.44083824,
        "meta_eccentricity": 0.00940456,
        "meta_inclination": 98.1765,
        "meta_ra_of_asc_node": 255.2445,
        "meta_arg_of_pericenter": 130.906,
        "meta_mean_anomaly": 230.0325,
        "meta_ephemeris_type": 0,
        "meta_classification_type": "U",
        "meta_norad_cat_id": 31459,
        "meta_element_set_no": 999,
        "meta_rev_at_epoch": 64561,
        "meta_bstar": 0.0020176648,
        "meta_mean_motion_dot": 7.253e-05,
        "meta_mean_motion_ddot": 0,
        "tle_line1": "1 31459U 99025BUX 25346.98933687  .00007253  00000+0  20177-2 0  9995",
        "tle_line2": "2 31459  98.1765 255.2445 0094045 130.9060 230.0325 14.44083824645613"
      },
      "geometry": {
        "type": "Point",
        "coordinates": [
          -112.02974030381986,
          45.9539078846422
        ]
      }
    },
    {
      "type": "Feature",
      "properties": {
        "norad_id": 31462,
        "name": "FENGYUN 1C DEB",
        "group": "fengyun-1c-debris",
        "lat": 51.34808013948999,
        "lon": -4.35482841501908,
        "alt_km": 863.7977099326899,
        "timestamp": "2025-12-14T07:33:19.760612+00:00",
        "meta_object_name": "FENGYUN 1C DEB",
        "meta_object_id": "1999-025BVA",
        "meta_epoch": "2025-12-10T08:12:26.265024",
        "meta_mean_motion": 14.13005923,
        "meta_eccentricity": 0.00319673,
        "meta_inclination": 98.6905,
        "meta_ra_of_asc_node": 2.814,
        "meta_arg_of_pericenter": 211.2699,
        "meta_mean_anomaly": 163.3139,
        "meta_ephemeris_type": 0,
        "meta_classification_type": "U",
        "meta_norad_cat_id": 31462,
        "meta_element_set_no": 999,
        "meta_rev_at_epoch": 95822,
        "meta_bstar": 0.00048932304,
        "meta_mean_motion_dot": 8.74e-06,
        "meta_mean_motion_ddot": 0,
        "tle_line1": "1 31462U 99025BVA 25344.34197066  .00000874  00000+0  48932-3 0  9992",
        "tle_line2": "2 31462  98.6905   2.8140 0031967 211.2699 163.3139 14.13005923958226"
      },
      "geometry": {
        "type": "Point",
        "coordinates": [
          -4.35482841501908,
          51.34808013948999
        ]
      }
    }
  ]
}